H1 CPF  1  DLR 2022 06 14 10  6652 technosat            
H2  1704205 6203    42829 2022 06 14 00 00 00 2022 06 21 00 00 00    60 1 1  0 0 0
H9
10 0 59746  79200.000000  0       5789171.374      -3860946.591       -592714.277
10 0 59746  79260.000000  0       5696166.565      -3905744.817      -1038805.511
10 0 59746  79320.000000  0       5578942.568      -3933233.347      -1480505.931
10 0 59746  79380.000000  0       5438152.527      -3943093.693      -1915950.814
10 0 59746  79440.000000  0       5274550.904      -3935087.830      -2343303.334
10 0 59746  79500.000000  0       5088989.415      -3909059.937      -2760762.337
10 0 59746  79560.000000  0       4882412.512      -3864937.727      -3166569.978
10 0 59746  79620.000000  0       4655852.439      -3802733.349      -3559019.083
10 0 59746  79680.000000  0       4410423.934      -3722543.919      -3936460.215
10 0 59746  79740.000000  0       4147318.620      -3624551.660      -4297308.497
10 0 59746  79800.000000  0       3867799.090      -3509023.575      -4640050.118
10 0 59746  79860.000000  0       3573192.711      -3376310.748      -4963248.451
10 0 59746  79920.000000  0       3264885.231      -3226847.250      -5265549.813
10 0 59746  79980.000000  0       2944314.200      -3061148.684      -5545688.806
10 0 59746  80040.000000  0       2612962.275      -2879810.409      -5802493.287
10 0 59746  80100.000000  0       2272350.414      -2683505.412      -6034888.980
10 0 59746  80160.000000  0       1924030.961      -2472981.813      -6241903.760
10 0 59746  80220.000000  0       1569580.602      -2249059.977      -6422671.506
10 0 59746  80280.000000  0       1210593.268      -2012629.263      -6576435.462
10 0 59746  80340.000000  0        848673.085      -1764644.479      -6702551.098
10 0 59746  80400.000000  0        485427.363      -1506122.118      -6800488.585
10 0 59746  80460.000000  0        122459.596      -1238136.267      -6869834.858
10 0 59746  80520.000000  0       -238637.419       -961814.241      -6910295.178
10 0 59746  80580.000000  0       -596288.341       -678332.012      -6921694.351
10 0 59746  80640.000000  0       -948942.023       -388909.365      -6903977.533
10 0 59746  80700.000000  0      -1295078.118        -94804.787      -6857210.530
10 0 59746  80760.000000  0      -1633213.494        202689.828      -6781579.644
10 0 59746  80820.000000  0      -1961908.465        502254.675      -6677391.114
10 0 59746  80880.000000  0      -2279772.819        802547.726      -6545070.116
10 0 59746  80940.000000  0      -2585471.625       1102210.599      -6385159.324
10 0 59746  81000.000000  0      -2877730.828       1399874.536      -6198317.022
10 0 59746  81060.000000  0      -3155342.604       1694166.536      -5985314.809
10 0 59746  81120.000000  0      -3417170.479       1983715.617      -5747034.857
10 0 59746  81180.000000  0      -3662154.178       2267159.180      -5484466.683
10 0 59746  81240.000000  0      -3889314.144       2543149.431      -5198703.410
10 0 59746  81300.000000  0      -4097755.715       2810359.829      -4890937.554
10 0 59746  81360.000000  0      -4286672.897       3067491.509      -4562456.341
10 0 59746  81420.000000  0      -4455351.729       3313279.663      -4214636.633
10 0 59746  81480.000000  0      -4603173.247       3546499.876      -3848939.472
10 0 59746  81540.000000  0      -4729616.062       3765974.390      -3466904.192
10 0 59746  81600.000000  0      -4834258.516       3970578.211      -3070142.078
10 0 59746  81660.000000  0      -4916780.323       4159245.015      -2660329.611
10 0 59746  81720.000000  0      -4976963.692       4330972.818      -2239201.444
10 0 59746  81780.000000  0      -5014694.064       4484829.465      -1808543.078
10 0 59746  81840.000000  0      -5029960.313       4619957.820      -1370183.126
10 0 59746  81900.000000  0      -5022854.402       4735580.583       -925985.387
10 0 59746  81960.000000  0      -4993570.571       4831004.807       -477840.666
10 0 59746  82020.000000  0      -4942403.897       4905626.018        -27658.401
10 0 59746  82080.000000  0      -4869748.379       4958931.882        422641.762
10 0 59746  82140.000000  0      -4776094.635       4990505.368        871138.532
10 0 59746  82200.000000  0      -4662027.020       5000027.484       1315917.598
10 0 59746  82260.000000  0      -4528220.212       4987279.504       1755080.200
10 0 59746  82320.000000  0      -4375435.359       4952144.666       2186751.590
10 0 59746  82380.000000  0      -4204515.808       4894609.371       2609089.358
10 0 59746  82440.000000  0      -4016382.454       4814763.853       3020291.590
10 0 59746  82500.000000  0      -3812028.720       4712802.352       3418604.810
10 0 59746  82560.000000  0      -3592515.228       4589022.723       3802331.649
10 0 59746  82620.000000  0      -3358964.223       4443825.561       4169838.247
10 0 59746  82680.000000  0      -3112553.684       4277712.839       4519561.370
10 0 59746  82740.000000  0      -2854511.187       4091285.984       4850015.130
10 0 59746  82800.000000  0      -2586107.633       3885243.480       5159797.315
10 0 59746  82860.000000  0      -2308650.793       3660377.999       5447595.287
10 0 59746  82920.000000  0      -2023478.772       3417573.093       5712191.454
10 0 59746  82980.000000  0      -1731953.392       3157799.459       5952468.265
10 0 59746  83040.000000  0      -1435453.544       2882110.799       6167412.763
10 0 59746  83100.000000  0      -1135368.526       2591639.241       6356120.598
10 0 59746  83160.000000  0       -833091.522       2287590.497       6517799.495
10 0 59746  83220.000000  0       -530013.158       1971238.760       6651772.411
10 0 59746  83280.000000  0       -227515.041       1643921.184       6757480.220
10 0 59746  83340.000000  0         73036.573       1307032.063       6834483.794
10 0 59746  83400.000000  0        370296.957        962016.810       6882465.583
10 0 59746  83460.000000  0        662948.897        610365.720       6901230.728
10 0 59746  83520.000000  0        949708.491        253607.507       6890707.723
10 0 59746  83580.000000  0       1229330.744       -106697.349       6850948.601
10 0 59746  83640.000000  0       1500614.944       -468963.458       6782128.643
10 0 59746  83700.000000  0       1762409.805       -831587.550       6684545.524
10 0 59746  83760.000000  0       2013618.293      -1192955.509       6558617.976
10 0 59746  83820.000000  0       2253202.216      -1551449.532       6404884.098
10 0 59746  83880.000000  0       2480186.546      -1905455.416       6223999.131
10 0 59746  83940.000000  0       2693663.405      -2253369.855       6016732.712
10 0 59746  84000.000000  0       2892795.720      -2593607.691       5783965.652
10 0 59746  84060.000000  0       3076820.510      -2924609.169       5526686.311
10 0 59746  84120.000000  0       3245051.815      -3244847.151       5245986.522
10 0 59746  84180.000000  0       3396883.283      -3552834.206       4943057.047
10 0 59746  84240.000000  0       3531790.381      -3847129.578       4619182.665
10 0 59746  84300.000000  0       3649332.251      -4126346.062       4275736.797
10 0 59746  84360.000000  0       3749153.096      -4389156.637       3914175.682
10 0 59746  84420.000000  0       3830983.133      -4634300.839       3536032.257
10 0 59746  84480.000000  0       3894639.204      -4860590.929       3142909.688
10 0 59746  84540.000000  0       3940024.927      -5066917.739       2736474.526
10 0 59746  84600.000000  0       3967130.429      -5252256.172       2318449.582
10 0 59746  84660.000000  0       3976031.657      -5415670.342       1890606.565
10 0 59746  84720.000000  0       3966889.284      -5556318.328       1454758.447
10 0 59746  84780.000000  0       3939947.152      -5673456.464       1012751.622
10 0 59746  84840.000000  0       3895530.325      -5766443.128        566457.996
10 0 59746  84900.000000  0       3834042.841      -5834742.163        117767.013
10 0 59746  84960.000000  0       3755965.082      -5877925.861       -331422.555
10 0 59746  85020.000000  0       3661850.679      -5895677.343       -779210.882
10 0 59746  85080.000000  0       3552323.051      -5887792.363      -1223705.287
10 0 59746  85140.000000  0       3428071.671      -5854180.588      -1663028.302
10 0 59746  85200.000000  0       3289848.089      -5794866.393      -2095325.673
10 0 59746  85260.000000  0       3138461.657      -5709989.131      -2518774.297
10 0 59746  85320.000000  0       2974774.965      -5599802.805      -2931589.993
10 0 59746  85380.000000  0       2799699.071      -5464675.176      -3332035.023
10 0 59746  85440.000000  0       2614188.545      -5305086.363      -3718425.362
10 0 59746  85500.000000  0       2419236.322      -5121626.927      -4089137.681
10 0 59746  85560.000000  0       2215868.467      -4914995.460      -4442615.996
10 0 59746  85620.000000  0       2005138.853      -4685995.681      -4777377.994
10 0 59746  85680.000000  0       1788123.827      -4435533.088      -5092020.986
10 0 59746  85740.000000  0       1565916.827      -4164611.196      -5385227.538
10 0 59746  85800.000000  0       1339622.980      -3874327.349      -5655770.697
10 0 59746  85860.000000  0       1110353.709      -3565868.155      -5902518.823
10 0 59746  85920.000000  0        879221.368      -3240504.559      -6124440.024
10 0 59746  85980.000000  0        647333.957      -2899586.563      -6320606.171
10 0 59746  86040.000000  0        415789.930      -2544537.598      -6490196.510
10 0 59746  86100.000000  0        185673.126      -2176848.608      -6632500.819
10 0 59746  86160.000000  0        -41952.162      -1798071.850      -6746922.149
10 0 59746  86220.000000  0       -266045.948      -1409814.463      -6832979.138
10 0 59746  86280.000000  0       -485597.157      -1013731.777      -6890307.906
10 0 59746  86340.000000  0       -699628.049       -611520.425      -6918663.498
99
